{"fetched_at":"2026-07-10T18:07:52.116Z","source":"https://celestrak.org/NORAD/elements/gp.php?GROUP=oneweb&FORMAT=JSON","constellation":"oneweb","records":[{"OBJECT_NAME":"ONEWEB-0403","OBJECT_ID":"2021-132Q","EPOCH":"2026-07-09T15:41:17.321280","CLASSIFICATION_TYPE":"U","MEAN_MOTION":13.18686511,"ECCENTRICITY":0.00018326,"INCLINATION":87.9189,"RA_OF_ASC_NODE":330.9878,"ARG_OF_PERICENTER":92.584,"MEAN_ANOMALY":267.5502,"EPHEMERIS_TYPE":0,"NORAD_CAT_ID":50483,"ELEMENT_SET_NO":999,"REV_AT_EPOCH":22455,"BSTAR":0.000001467694,"MEAN_MOTION_DOT":1.3e-7,"MEAN_MOTION_DDOT":0},{"OBJECT_NAME":"ONEWEB-0404","OBJECT_ID":"2021-132R","EPOCH":"2026-07-09T23:47:57.637248","CLASSIFICATION_TYPE":"U","MEAN_MOTION":13.11414093,"ECCENTRICITY":0.00019521,"INCLINATION":87.889,"RA_OF_ASC_NODE":16.5272,"ARG_OF_PERICENTER":78.8054,"MEAN_ANOMALY":281.3293,"EPHEMERIS_TYPE":0,"NORAD_CAT_ID":50484,"ELEMENT_SET_NO":999,"REV_AT_EPOCH":21868,"BSTAR":-0.00060419221,"MEAN_MOTION_DOT":-0.00000201,"MEAN_MOTION_DDOT":0},{"OBJECT_NAME":"ONEWEB-0405","OBJECT_ID":"2021-132S","EPOCH":"2026-07-09T16:00:41.815296","CLASSIFICATION_TYPE":"U","MEAN_MOTION":13.18683913,"ECCENTRICITY":0.00023348,"INCLINATION":87.919,"RA_OF_ASC_NODE":330.9705,"ARG_OF_PERICENTER":100.1253,"MEAN_ANOMALY":260.0143,"EPHEMERIS_TYPE":0,"NORAD_CAT_ID":50485,"ELEMENT_SET_NO":999,"REV_AT_EPOCH":22495,"BSTAR":0.00014940135,"MEAN_MOTION_DOT":7.2e-7,"MEAN_MOTION_DDOT":0},{"OBJECT_NAME":"ONEWEB-0406","OBJECT_ID":"2021-132T","EPOCH":"2026-07-09T15:48:33.989472","CLASSIFICATION_TYPE":"U","MEAN_MOTION":13.18686406,"ECCENTRICITY":0.00018789,"INCLINATION":87.9186,"RA_OF_ASC_NODE":330.9871,"ARG_OF_PERICENTER":81.192,"MEAN_ANOMALY":278.9425,"EPHEMERIS_TYPE":0,"NORAD_CAT_ID":50486,"ELEMENT_SET_NO":999,"REV_AT_EPOCH":22458,"BSTAR":0.00001940176,"MEAN_MOTION_DOT":2.1e-7,"MEAN_MOTION_DDOT":0},{"OBJECT_NAME":"ONEWEB-0407","OBJECT_ID":"2021-132U","EPOCH":"2026-07-09T15:38:50.682336","CLASSIFICATION_TYPE":"U","MEAN_MOTION":13.18688005,"ECCENTRICITY":0.000188,"INCLINATION":87.9192,"RA_OF_ASC_NODE":330.9814,"ARG_OF_PERICENTER":103.9526,"MEAN_ANOMALY":256.1815,"EPHEMERIS_TYPE":0,"NORAD_CAT_ID":50487,"ELEMENT_SET_NO":999,"REV_AT_EPOCH":22452,"BSTAR":0.000048733542,"MEAN_MOTION_DOT":3.2e-7,"MEAN_MOTION_DDOT":0},{"OBJECT_NAME":"ONEWEB-0409","OBJECT_ID":"2021-132V","EPOCH":"2026-07-09T12:46:19.284096","CLASSIFICATION_TYPE":"U","MEAN_MOTION":13.11414453,"ECCENTRICITY":0.00019245,"INCLINATION":87.8879,"RA_OF_ASC_NODE":16.6071,"ARG_OF_PERICENTER":80.1953,"MEAN_ANOMALY":279.9392,"EPHEMERIS_TYPE":0,"NORAD_CAT_ID":50488,"ELEMENT_SET_NO":999,"REV_AT_EPOCH":21851,"BSTAR":-0.00080245105,"MEAN_MOTION_DOT":-0.00000272,"MEAN_MOTION_DDOT":0},{"OBJECT_NAME":"ONEWEB-0412","OBJECT_ID":"2021-132W","EPOCH":"2026-07-10T07:45:13.082976","CLASSIFICATION_TYPE":"U","MEAN_MOTION":13.18686715,"ECCENTRICITY":0.00015996,"INCLINATION":87.9188,"RA_OF_ASC_NODE":330.8558,"ARG_OF_PERICENTER":102.2493,"MEAN_ANOMALY":257.8818,"EPHEMERIS_TYPE":0,"NORAD_CAT_ID":50489,"ELEMENT_SET_NO":999,"REV_AT_EPOCH":22470,"BSTAR":0.000088563732,"MEAN_MOTION_DOT":4.8e-7,"MEAN_MOTION_DDOT":0},{"OBJECT_NAME":"ONEWEB-0413","OBJECT_ID":"2021-132X","EPOCH":"2026-07-10T07:52:30.204768","CLASSIFICATION_TYPE":"U","MEAN_MOTION":13.18687795,"ECCENTRICITY":0.00017239,"INCLINATION":87.9179,"RA_OF_ASC_NODE":330.8515,"ARG_OF_PERICENTER":106.0024,"MEAN_ANOMALY":254.1298,"EPHEMERIS_TYPE":0,"NORAD_CAT_ID":50490,"ELEMENT_SET_NO":999,"REV_AT_EPOCH":22464,"BSTAR":0.00015869702,"MEAN_MOTION_DOT":7.5e-7,"MEAN_MOTION_DDOT":0},{"OBJECT_NAME":"ONEWEB-0414","OBJECT_ID":"2021-132Y","EPOCH":"2026-07-09T15:07:17.462208","CLASSIFICATION_TYPE":"U","MEAN_MOTION":13.18686828,"ECCENTRICITY":0.00017226,"INCLINATION":87.9191,"RA_OF_ASC_NODE":330.9741,"ARG_OF_PERICENTER":97.665,"MEAN_ANOMALY":262.4678,"EPHEMERIS_TYPE":0,"NORAD_CAT_ID":50491,"ELEMENT_SET_NO":999,"REV_AT_EPOCH":22458,"BSTAR":0.00012092435,"MEAN_MOTION_DOT":6.1e-7,"MEAN_MOTION_DDOT":0},{"OBJECT_NAME":"ONEWEB-0417","OBJECT_ID":"2021-132Z","EPOCH":"2026-07-09T15:19:25.634496","CLASSIFICATION_TYPE":"U","MEAN_MOTION":13.1868714,"ECCENTRICITY":0.00019029,"INCLINATION":87.9182,"RA_OF_ASC_NODE":330.9908,"ARG_OF_PERICENTER":89.694,"MEAN_ANOMALY":270.441,"EPHEMERIS_TYPE":0,"NORAD_CAT_ID":50492,"ELEMENT_SET_NO":999,"REV_AT_EPOCH":22456,"BSTAR":0.0001066459,"MEAN_MOTION_DOT":5.5e-7,"MEAN_MOTION_DDOT":0},{"OBJECT_NAME":"ONEWEB-0418","OBJECT_ID":"2021-132AA","EPOCH":"2026-07-10T07:57:09.235296","CLASSIFICATION_TYPE":"U","MEAN_MOTION":13.1868609,"ECCENTRICITY":0.00019443,"INCLINATION":87.9186,"RA_OF_ASC_NODE":330.8538,"ARG_OF_PERICENTER":89.1636,"MEAN_ANOMALY":270.9718,"EPHEMERIS_TYPE":0,"NORAD_CAT_ID":50493,"ELEMENT_SET_NO":999,"REV_AT_EPOCH":22471,"BSTAR":0.0001489616,"MEAN_MOTION_DOT":7.2e-7,"MEAN_MOTION_DDOT":0},{"OBJECT_NAME":"ONEWEB-0419","OBJECT_ID":"2021-132AB","EPOCH":"2026-07-09T16:01:04.238688","CLASSIFICATION_TYPE":"U","MEAN_MOTION":13.1866614,"ECCENTRICITY":0.00021503,"INCLINATION":87.9189,"RA_OF_ASC_NODE":330.9864,"ARG_OF_PERICENTER":94.6508,"MEAN_ANOMALY":265.487,"EPHEMERIS_TYPE":0,"NORAD_CAT_ID":50494,"ELEMENT_SET_NO":999,"REV_AT_EPOCH":22454,"BSTAR":0.00011550025,"MEAN_MOTION_DOT":5.8e-7,"MEAN_MOTION_DDOT":0},{"OBJECT_NAME":"ONEWEB-0420","OBJECT_ID":"2021-132AC","EPOCH":"2026-07-09T15:09:41.943744","CLASSIFICATION_TYPE":"U","MEAN_MOTION":13.18687706,"ECCENTRICITY":0.00019184,"INCLINATION":87.9181,"RA_OF_ASC_NODE":330.9939,"ARG_OF_PERICENTER":104.0707,"MEAN_ANOMALY":256.0638,"EPHEMERIS_TYPE":0,"NORAD_CAT_ID":50495,"ELEMENT_SET_NO":999,"REV_AT_EPOCH":22453,"BSTAR":0.00012597376,"MEAN_MOTION_DOT":6.3e-7,"MEAN_MOTION_DDOT":0},{"OBJECT_NAME":"ONEWEB-0421","OBJECT_ID":"2021-132AD","EPOCH":"2026-07-09T15:00:00.820800","CLASSIFICATION_TYPE":"U","MEAN_MOTION":13.18608134,"ECCENTRICITY":0.00013061,"INCLINATION":87.9186,"RA_OF_ASC_NODE":330.9935,"ARG_OF_PERICENTER":109.0068,"MEAN_ANOMALY":251.1206,"EPHEMERIS_TYPE":0,"NORAD_CAT_ID":50496,"ELEMENT_SET_NO":999,"REV_AT_EPOCH":22457,"BSTAR":0.036815373,"MEAN_MOTION_DOT":0.00014534,"MEAN_MOTION_DDOT":0},{"OBJECT_NAME":"ONEWEB-0424","OBJECT_ID":"2021-132AE","EPOCH":"2026-07-09T15:53:25.780416","CLASSIFICATION_TYPE":"U","MEAN_MOTION":13.18622331,"ECCENTRICITY":0.00024876,"INCLINATION":87.9186,"RA_OF_ASC_NODE":330.9854,"ARG_OF_PERICENTER":105.2254,"MEAN_ANOMALY":254.9154,"EPHEMERIS_TYPE":0,"NORAD_CAT_ID":50497,"ELEMENT_SET_NO":999,"REV_AT_EPOCH":22460,"BSTAR":0.030759977,"MEAN_MOTION_DOT":0.00012145,"MEAN_MOTION_DDOT":0},{"OBJECT_NAME":"ONEWEB-0426","OBJECT_ID":"2021-132AF","EPOCH":"2026-07-09T14:53:56.382144","CLASSIFICATION_TYPE":"U","MEAN_MOTION":13.18685785,"ECCENTRICITY":0.00015012,"INCLINATION":87.9187,"RA_OF_ASC_NODE":330.9851,"ARG_OF_PERICENTER":74.1664,"MEAN_ANOMALY":285.9633,"EPHEMERIS_TYPE":0,"NORAD_CAT_ID":50498,"ELEMENT_SET_NO":999,"REV_AT_EPOCH":22454,"BSTAR":0.000009790068,"MEAN_MOTION_DOT":1.7e-7,"MEAN_MOTION_DDOT":0}]}
